[{"OBJECT_NAME":"FORMOSAT 7-3","OBJECT_ID":"2019-036E","EPOCH":"2026-03-09T19:49:52.754592","MEAN_MOTION":15.08933962,"ECCENTRICITY":0.00010606,"INCLINATION":23.9981,"RA_OF_ASC_NODE":141.9797,"ARG_OF_PERICENTER":150.4425,"MEAN_ANOMALY":209.6139,"EPHEMERIS_TYPE":0,"CLASSIFICATION_TYPE":"U","NORAD_CAT_ID":44343,"ELEMENT_SET_NO":999,"REV_AT_EPOCH":36821,"BSTAR":0.00037650049,"MEAN_MOTION_DOT":6.445e-5,"MEAN_MOTION_DDOT":0},{"OBJECT_NAME":"STARLINK-3753","OBJECT_ID":"2022-041AH","EPOCH":"2026-03-09T11:37:57.079488","MEAN_MOTION":15.0883751,"ECCENTRICITY":0.00013864,"INCLINATION":53.2156,"RA_OF_ASC_NODE":100.0402,"ARG_OF_PERICENTER":92.0133,"MEAN_ANOMALY":268.1018,"EPHEMERIS_TYPE":0,"CLASSIFICATION_TYPE":"U","NORAD_CAT_ID":52292,"ELEMENT_SET_NO":999,"REV_AT_EPOCH":21447,"BSTAR":-9.390737e-6,"MEAN_MOTION_DOT":-4.37e-6,"MEAN_MOTION_DDOT":0}]
