FORMOSAT 7-3            
1 44343U 19036E   26068.82630502  .00006445  00000+0  37650-3 0  9997
2 44343  23.9981 141.9797 0001061 150.4425 209.6139 15.08933962368215
STARLINK-3753           
1 52292U 22041AH  26068.48468842 -.00000437  00000+0 -93907-5 0  9993
2 52292  53.2156 100.0402 0001386  92.0133 268.1018 15.08837510214479
